"CODICE_FARMACIA","DESCRIZIONE_FARMACIA","PARTITA_IVA","INDIRIZZO","COMUNE","FRAZIONE","CAP","PROVINCIA","CODICE_ISTAT","LATITUDINE","LONGITUDINE","LOCATION"
"MI1992","DEL MERCATO SRL","12310470963","VIA VARSAVIA, 4","MILANO",,"20137","MI","15.146","45,45259068974","9,22896406112","POINT (9.228964061117 45.452590689739)"
"MI1863","CORSO VERCELLI","09479870967","VIA FRANCESCO CHERUBINI, 2","MILANO",,"20145","MI","15.146","45,46679830899","9,15966634134","POINT (9.159666341338 45.466798308988)"
"MI1686","LANZANI SRL","05270390965","VIA MICHELE LESSONA, 2","MILANO",,"20157","MI","15.146","45,51329909615","9,13689656609","POINT (9.136896566086 45.513299096149)"
"MI1837","CORDUSIO SNC","08741670965","VIA SANTA MARIA SEGRETA, 6","MILANO",,"20123","MI","15.146","45,46572169544","9,18509502392","POINT (9.185095023916 45.465721695435)"
"MI0897","A.F.M. N. 48","13195220150","VIALE ABRUZZI, 4","MILANO",,"20131","MI","15.146","45,474123799","9,21742746104","POINT (9.217427461044 45.474123798997)"
"MI1946","SAN MICHELE SRL","11070440968","VIALE CONI ZUGNA, 12","MILANO",,"20144","MI","15.146","45,45979589944","9,1651445018","POINT (9.165144501797 45.459795899438)"
"MI1763","DOTT. AUGUSTO DE LUCA SAS","06759200964","VIA NINO BIXIO, 1","MILANO",,"20129","MI","15.146","45,47206130599","9,20711897742","POINT (9.207118977423 45.472061305992)"
"MI2024","DEL LAZZARETTO DR. MOIA FABIO","13432380965","VIA PANFILO CASTALDI, 29","MILANO",,"20124","MI","15.146","45,47652860893","9,20357510876","POINT (9.203575108761 45.476528608928)"
"MI1851","GASTALDI DI DR.PIETRO BENZI & C. SNC","09162190962","VIA PRIVATA CESARE FACCIOLI, 2","MILANO",,"20152","MI","15.146","45,46106688933","9,0918988218","POINT (9.091898821803 45.461066889326)"
"MI0905","A.F.M. N. 59","13195220150","VIA GIANFRANCO ZURETTI, 9","MILANO",,"20125","MI","15.146","45,49193660053","9,20685846787","POINT (9.206858467873 45.49193660053)"
"MI1702","ROSSETTO SNC & C.","05315770965","PIAZZALE PAOLO GORINI, 14","MILANO",,"20133","MI","15.146","45,47368668275","9,23057715838","POINT (9.230577158383 45.473686682747)"
"MI1374","CERTOSA SAS","10704850154","VIALE CERTOSA, 121","MILANO",,"20151","MI","15.146","45,4949180854","9,14034580306","POINT (9.140345803062 45.4949180854)"
"MI1623","MANCA SNC","13266660151","VIA GIACINTO SERRATI MENOTTI,12","MILANO",,"20138","MI","15.146","45,4420751","9,2628883","POINT (9.2628883 45.4420751)"
"MI0642","A.F.M. N. 01","13195220150","VIA DEL LIRI, 1","MILANO",,"20138","MI","15.146","45,44522090137","9,24849330878","POINT (9.248493308783 45.445220901372)"
"MI0049","COOP.FARM.PONTACCIO","00774640155","VIA PONTACCIO, 22","MILANO",,"20121","MI","15.146","45,47222278336","9,18411341924","POINT (9.184113419235 45.472222783357)"
"MI1835","WAGNER SRL","08844420961","VIA MICHELANGELO BUONARROTI, 5","MILANO",,"20149","MI","15.146","45,46748730143","9,15496292019","POINT (9.15496292019 45.467487301429)"
"MI1441","BRACCIO SRL","11015890152","VIA FELICE CASATI, 32","MILANO",,"20124","MI","15.146","45,47969009517","9,20167811643","POINT (9.201678116434 45.479690095167)"
"MI1734","AL PORTELLO SNC","05858450967","VIA GROSOTTO, 5","MILANO",,"20149","MI","15.146","45,49123369413","9,14742197336","POINT (9.14742197336 45.49123369413)"
"MI2001","BANDI SRL","12444410968","VIA ROVERETO, 14","MILANO",,"20127","MI","15.146","45,49497939902","9,21971823518","POINT (9.219718235182 45.494979399021)"
"MI1632","LIBERTY","01682210032","VIA SAN PAOLO, 13","MILANO",,"20121","MI","15.146","45,46624698931","9,19307576921","POINT (9.193075769205 45.466246989307)"
"MI0252","A.F.M. N. 43","13195220150","PIAZZALE VINCENZO CUOCO, 4","MILANO",,"20137","MI","15.146","45,45093077954","9,22472508122","POINT (9.224725081224 45.450930779544)"
"MI0744","A.F.M. N. 27","13195220150","PIAZZA TITO IMPERATORE 8","MILANO",,"20159","MI","15.146","45,4683807","9,17312736","POINT (9.17312736 45.4683807)"
"MI1720","CASTOLDI DEI DOTTORI NATALE E SANTILLI SRL","06197990960","VIA LUIGI PORRO LAMBERTENGHI, 25","MILANO",,"20159","MI","15.146","45,48908700491","9,18849992062","POINT (9.188499920624 45.489087004908)"
"MI1971","SERENIFARMA SRL A SOCIO UNICO (EX BEATO ANGELICO)","11063100967","VIA CESARE SALDINI, 4","MILANO",,"20133","MI","15.146","45,47078650234","9,22754701657","POINT (9.227547016566 45.470786502338)"
"MI0045","COOP.FARM.DUOMO","00774640155","VIA OREFICI, 2","MILANO",,"20123","MI","15.146","45,46406308444","9,18807026427","POINT (9.188070264267 45.464063084435)"
"MI1958","CENISIO SRL","11469180969","VIA SAN GALDINO, 11","MILANO",,"20154","MI","15.146","45,48707719217","9,16664226408","POINT (9.166642264075 45.487077192165)"
"MI1913","MODIANO CLARA SAS DR. PAGLIANO MAURIZIO MARIA & C","10543370968","PIAZZA CARLO STUPARICH, 4","MILANO",,"20148","MI","15.146","45,48251148569","9,14366218687","POINT (9.143662186872 45.482511485686)"
"MI1964","SANTA MARIA ALLA FONTANA DI MANNO MATILDE SAS","11469640962","VIA GENOVA THAON DI REVEL,12","MILANO",,"20159","MI","15.146","45,49228931","9,18885724","POINT (9.18885724 45.49228931)"
"MI0704","A.F.M. N. 39","13195220150","PIAZZA ANITA GARIBALDI, 8","MILANO",,"20153","MI","15.146","45,4634181808","9,08749899319","POINT (9.087498993188 45.463418180804)"
"MI1934","LAMBRATE SRL","10991560961","VIA GIOVANNI PACINI, 70","MILANO",,"20131","MI","15.146","45,48409009142","9,23505183739","POINT (9.235051837394 45.48409009142)"
"MI0497","A.F.M. N. 18","13195220150","VIA ALEX VISCONTI,22A","MILANO",,"20151","MI","15.146","45,50408772","9,1004663","POINT (9.1004663 45.50408772)"
"MI1822","IMPERIA SNC","08271020961","VIA SPEZIA, 20","MILANO",,"20142","MI","15.146","45,44131300666","9,1723624939","POINT (9.172362493897 45.441313006655)"
"MI2053","CAVALLI DI COZZI DOTT. PAOLO","14148910962","VIA GIUSEPPE CANDIANI, 122","MILANO",,"20158","MI","15.146","45,5032089192","9,16251970882","POINT (9.162519708817 45.503208919197)"
"MI1779","VIALE ROMAGNA SRL","07207710968","VIALE ROMAGNA, 25","MILANO",,"20133","MI","15.146","45,47231188299","9,22333427203","POINT (9.22333427203 45.472311882988)"
"MI1756","RAVIZZA SRL","06578900968","VIA MARGHERA, 18","MILANO",,"20149","MI","15.146","45,46729590067","9,15331906134","POINT (9.15331906134 45.46729590067)"
"MI1886","CARLO ERBA FARMA ACQUISITION SRL","02489000998","PIAZZA DEL DUOMO, 21","MILANO",,"20121","MI","15.146","45,46478920871","9,18959702793","POINT (9.18959702793 45.464789208707)"
"MI0698","A.F.M. N. 32","13195220150","VIA EUGENIO PELLINI,1","MILANO",,"20125","MI","15.146","45,49586042","9,20391809","POINT (9.20391809 45.49586042)"
"MI1921","BALBONI SRL","10581280962","VIA GIOVANNI PEZZOTTI, 59","MILANO",,"20141","MI","15.146","45,43852870606","9,1835675897","POINT (9.1835675897 45.438528706058)"
"MI1666","FERRARINI SNC","04026870966","PIAZZA CINQUE GIORNATE, 6","MILANO",,"20129","MI","15.146","45,46171070331","9,20718200934","POINT (9.207182009335 45.461710703309)"
"MI1925","CINQUE GIORNATE SNC-SUSA","07111920968","PIAZZALE SUSA, 6","MILANO",,"20133","MI","15.146","45,4675290014","9,2233182626","POINT (9.223318262595 45.467529001398)"
"MI1881","GIULIO CESARE SNC DEI DR. ROBERTO,GABRIELE E FRANCESCA MARZANI","10107480963","VIA MONTE ROSA, 27","MILANO",,"20149","MI","15.146","45,47295439778","9,15164787748","POINT (9.151647877484 45.472954397776)"
"MI2049","LAFARMACIA.DELL'ORSO MILANO","06769500965","VIA DELL'ORSO, 1","MILANO",,"20121","MI","15.146","45,46905308285","9,18740474116","POINT (9.187404741155 45.469053082852)"
"MI1407","TRIVULZIO","10889380159","VIA ANTONIO TOLOMEO TRIVULZIO, 28","MILANO",,"20146","MI","15.146","45,46525800855","9,14355850273","POINT (9.14355850273 45.465258008551)"
"MI0973","A.F.M. N. 79","13195220150","VIA GUIDO DE RUGGIERO, 8","MILANO",,"20142","MI","15.146","45,41884590193","9,17451831939","POINT (9.174518319394 45.418845901926)"
"MI1873","CALO'","09726360960","PIAZZALE GABRIO PIOLA, 1","MILANO",,"20131","MI","15.146","45,47976100607","9,22315816825","POINT (9.223158168245 45.479761006068)"
"MI1545","REMOTTI","11988310154","VIALE PREMUDA, 10","MILANO",,"20129","MI","15.146","45,46362240588","9,20768869538","POINT (9.207688695382 45.463622405875)"
"MI1983","CANEVA SRL","12113350966","PIAZZA CARLO CANEVA, 3","MILANO",,"20154","MI","15.146","45,48727927985","9,16152511219","POINT (9.161525112186 45.48727927985)"
"MI1801","MONTE ROSA SAS DEI DOTTORI ANTONIOLI ANDREA MARIA E ANTONIOLI CARLO MARIA","07601070969","VIA ELEUTERIO PAGLIANO 1A","MILANO",,"20149","MI","15.146","45,47560680913","9,14804500022","POINT (9.148045000223 45.475606809126)"
"MI1575","MISSORI SAS DI ANGELA ED ELVIRA LIBERATORE","12263860152","PIAZZA GIUSEPPE MISSORI,3","MILANO",,"20123","MI","15.146","45,46091","9,18866","POINT (9.18866 45.46091)"
"MI2037","CARNEVALE SNC DI CARNEVALE BONINO ANDREA","13834540968","VIA RAFFAELLO SANZIO 2A","MILANO",,"20149","MI","15.146","45,46981768006","9,15426261218","POINT (9.15426261218 45.46981768006)"
"MI1392","SAN CAMILLO DEL DR.DARDANELLI GIOVANNI SNC","10767360158","PIAZZALE FERDINANDO MARTINI, 3","MILANO",,"20137","MI","15.146","45,45727340759","9,22199861576","POINT (9.221998615759 45.457273407587)"
"MI2060","DEL GARIBALDI SAS DEL DR. CANTONI REMO FABRIZIO","14377660965","CORSO GIUSEPPE GARIBALDI, 83","MILANO",,"20121","MI","15.146","45,47643498307","9,18381887916","POINT (9.183818879157 45.476434983069)"
"MI1715","PAVESIO SAS DI G. GASTALDI & C.","05528980963","VIA GIORGIO CHAVEZ, 19","MILANO",,"20131","MI","15.146","45,49291321798","9,22605352906","POINT (9.226053529059 45.492913217979)"
"MI2066","PADOVA SAS DEL DOTT. TOMMASO LATELLA E C.","14352180963","VIA PRIVATA ATENE, 2","MILANO",,"20132","MI","15.146","45,49831510312","9,23306960111","POINT (9.233069601112 45.498315103118)"
"MI1933","LEONCAVALLO SRL","02944080841","VIA FRANCESCO PREDABISSI, 1","MILANO",,"20131","MI","15.146","45,48998650885","9,22325011772","POINT (9.223250117723 45.489986508847)"
"MI2057","MILANO PORTA ROMANA","12283700966","CORSO DI PORTA ROMANA, 68","MILANO",,"20122","MI","15.146","45,45704001349","9,1939592218","POINT (9.1939592218 45.457040013493)"
"MI1592","EUROPA SNC DEL DR.MARIO DE CONCA & C","12507350150","VIALE MONZA, 177","MILANO",,"20126","MI","15.146","45,50398001238","9,22185612341","POINT (9.221856123405 45.50398001238)"
"MI1893","BERGOGNONE SRL","10209770964","VIA AMBROGIO DA FOSSANO BERGOGNONE, 31","MILANO",,"20144","MI","15.146","45,45398242094","9,16388621049","POINT (9.163886210492 45.453982420943)"
"MI1665","GABBIANI","04127060962","VIA DELLA MOSCOVA, 22","MILANO",,"20121","MI","15.146","45,47635950403","9,19215057473","POINT (9.192150574733 45.476359504031)"
"MI1640","RONDO' FARINI","03315190961","PIAZZALE CARLO MACIACHINI, 24","MILANO",,"20159","MI","15.146","45,49757858529","9,18403379116","POINT (9.184033791155 45.497578585286)"
"MI1949","LEGNANI SRL","11313560960","VIA GIOVANNI RASORI, 2","MILANO",,"20145","MI","15.146","45,46768368942","9,16418712082","POINT (9.164187120816 45.467683689421)"
"MI1738","SANTO SPIRITO SNC & C.","05989380968","VIALE MONZA, 325","MILANO",,"20126","MI","15.146","45,5184455847","9,2255102141","POINT (9.225510214095 45.518445584699)"
"MI2046","MILANO QUARENGHI","12283700966","VIA GIACOMO QUARENGHI, 23","MILANO",,"20151","MI","15.146","45,49582760571","9,11486020736","POINT (9.114860207362 45.495827605713)"
"MI1605","CALDARINI","12950980156","VIA ANTONIO GROSSICH, 15","MILANO",,"20131","MI","15.146","45,48211460257","9,23408833762","POINT (9.234088337624 45.48211460257)"
"MI0695","A.F.M. N. 31","13195220150","VIA TITO VIGNOLI, 42","MILANO",,"20146","MI","15.146","45,45254630756","9,14758768359","POINT (9.147587683586 45.452546307562)"
"MI1417","SAN CELSO","10992670157","VIA CROCEFISSO, 1","MILANO",,"20122","MI","15.146","45,45694160995","9,18733223769","POINT (9.187332237692 45.456941609949)"
"MI2034","URUGUAY SRL","13745860968","VIA SEM BENELLI, 11","MILANO",,"20151","MI","15.146","45,49703920982","9,12136448041","POINT (9.121364480407 45.497039209817)"
"MI1698","ALLA PORTA SRL","05353530966","CORSO DI PORTA ROMANA, 126","MILANO",,"20122","MI","15.146","45,45294130074","9,20079777168","POINT (9.200797771683 45.452941300741)"
"MI0649","A.F.M. N. 02","13195220150","VIA PRIVATA PARENZO, 8","MILANO",,"20143","MI","15.146","45,44139271855","9,14044755937","POINT (9.140447559366 45.441392718554)"
"MI1694","BARNI","05322260968","VIA FRATELLI LUMIE'RE, 2","MILANO",,"20127","MI","15.146","45,49131659115","9,21256570575","POINT (9.212565705745 45.491316591153)"
"MI1866","ANTICA FARMACIA DEL VERZIERE SNC","09566000965","CORSO XXII MARZO, 52","MILANO",,"20137","MI","15.146","45,46201329001","9,22305850742","POINT (9.223058507416 45.462013290013)"
"MI2020","CONCORDIA DR.PAPA SRL","13257040967","CORSO CONCORDIA, 16","MILANO",,"20129","MI","15.146","45,46771038578","9,2098393241","POINT (9.209839324099 45.467710385783)"
"MI1832","SELINUNTE SAS","08794770969","PIAZZALE SELINUNTE, 4","MILANO",,"20148","MI","15.146","45,47188008925","9,13822233171","POINT (9.138222331711 45.471880089246)"
"MI1451","CARLETTI SAS","11017700151","VIA MAC MAHON, 111","MILANO",,"20155","MI","15.146","45,49727088562","9,1532307999","POINT (9.153230799899 45.497270885621)"
"MI1674","VENTO","04727500961","VIA GIACOMO QUARENGHI, 40","MILANO",,"20151","MI","15.146","45,49884940754","9,1111877603","POINT (9.111187760304 45.498849407536)"
"MI0661","A.F.M. N. 03","13195220150","VIALE ROMAGNA, 58","MILANO",,"20133","MI","15.146","45,47533251135","9,22405536716","POINT (9.224055367161 45.475332511345)"
"MI1507","DEI PORTICI","11702960151","VIA LORENTEGGIO, 22","MILANO",,"20146","MI","15.146","45,45408610509","9,14878906177","POINT (9.148789061768 45.454086105085)"
"MI1842","SANT'AGOSTINO","08972030962","VIA SAN VINCENZO, 1","MILANO",,"20123","MI","15.146","45,45874208466","9,1771405978","POINT (9.177140597802 45.458742084661)"
"MI2013","SCALABRINI SRL SOCIETA' A SOCIO UNICO","12684210961","LARGO GIOVANNI BATTISTA SCALABRINI, 6","MILANO",,"20146","MI","15.146","45,44980508995","9,14116320626","POINT (9.141163206259 45.449805089948)"
"MI1826","NUOVA FARMACIA BERETTA SNC","08586580964","VIALE BLIGNY, 47","MILANO",,"20136","MI","15.146","45,45107159552","9,19639433231","POINT (9.19639433231 45.451071595517)"
"MI1758","CARLO ALBERTO SAS & C.","06660150969","VIA GIUSEPPE MAZZINI, 12","MILANO",,"20123","MI","15.146","45,46241411262","9,18836446907","POINT (9.188364469068 45.462414112623)"
"MI1952","TADINI SAS DI FARMACIA CINQUE GIORNATE SNC DI VINCENZO E SILVIO BUCCARELLI","11293140965","PIAZZA DEL TRICOLORE, 2","MILANO",,"20129","MI","15.146","45,46755708077","9,20630023312","POINT (9.206300233121 45.467557080773)"
"MI1903","STAZIONE CENTRALE FARMA ACQUISITION SRL","02489000998","PIAZZA DUCA D'AOSTA","MILANO",,"20124","MI","15.146","45,48487149434","9,20512911361","POINT (9.20512911361 45.484871494344)"
"MI1637","PROCACCINI SRL DI HIPPO 45 FARMA SRL","03207930961","VIA PAOLO LOMAZZO,44","MILANO",,"20154","MI","15.146","45,4838649","9,1704783","POINT (9.1704783 45.4838649)"
"MI1648","SACCHI SNC","03614190969","VIA AUGUSTO ANFOSSI, 9","MILANO",,"20135","MI","15.146","45,46044130598","9,20959968549","POINT (9.209599685487 45.460441305982)"
"MI2042","SERRA SAS DELLA DR.SSA TAVEGGIA PAOLA","13862740969","VIALE RENATO SERRA, 52","MILANO",,"20149","MI","15.146","45,48859318508","9,14969212802","POINT (9.149692128016 45.488593185082)"
"MI1190","A.F.M. N. 84","13195220150","VIA AGOSTINO DEPRETIS, 1","MILANO",,"20142","MI","15.146","45,43185080189","9,15374586785","POINT (9.153745867849 45.431850801889)"
"MI0888","A.F.M. N. 50","13195220150","VIA ANDREA MARIA AMPE'RE, 87","MILANO",,"20131","MI","15.146","45,48574170353","9,22629149129","POINT (9.22629149129 45.485741703532)"
"MI1898","RUBATTINO SAS DOTT. GARELLO GIOVANNI & C","10343180963","VIA RICCARDO PITTERI, 93","MILANO",,"20134","MI","15.146","45,47928889537","9,2458345691","POINT (9.245834569096 45.479288895372)"
"MI1746","PRIMATICCIO","06327200967","VIA FRANCESCO PRIMATICCIO, 96","MILANO",,"20147","MI","15.146","45,45484421991","9,1327014979","POINT (9.132701497904 45.454844219908)"
"MI0053","COOP.FARM.VERCELLI","00774640155","CORSO VERCELLI, 5","MILANO",,"20144","MI","15.146","45,46613140286","9,16389802898","POINT (9.163898028975 45.466131402862)"
"MI0925","A.F.M. N. 67","13195220150","VIA CASORETTO, 1","MILANO",,"20131","MI","15.146","45,48887561331","9,22507443895","POINT (9.225074438949 45.48887561331)"
"MI1502","CORSICO","11650210153","CORSO LODI, 19","MILANO",,"20135","MI","15.146","45,45003311962","9,20618950818","POINT (9.20618950818 45.450033119624)"
"MI1714","FORMAGGIA SAS DI TRAVIERSO ANTONIETTA","05525360961","CORSO BUENOS AIRES, 4","MILANO",,"20124","MI","15.146","45,47540350607","9,20623016041","POINT (9.206230160411 45.475403506065)"
"MI1937","NAZIONALE SRL","11041890960","CORSO CRISTOFORO COLOMBO, 6","MILANO",,"20144","MI","15.146","45,45445281335","9,17125373575","POINT (9.171253735745 45.454452813349)"
"MI1023","BOCCACCIO","04636170153","VIA GIOVANNI BOCCACCIO, 26","MILANO",,"20123","MI","15.146","45,46771771995","9,17009887713","POINT (9.170098877125 45.467717719948)"
"MI0682","A.F.M. N. 08","13195220150","VIA VAL MAIRA, 14","MILANO",,"20162","MI","15.146","45,5089493075","9,19640673753","POINT (9.196406737527 45.508949307496)"
"MI1977","CAMPIONI SRL","12086340960","VIALE SAN GIMIGNANO, 30","MILANO",,"20146","MI","15.146","45,45900971883","9,13678718225","POINT (9.136787182249 45.459009718829)"
"MI1498","BOIFAVA SRL","10698600151","VIA PIETRO BOIFAVA,31/B","MILANO",,"20142","MI","15.146","45,42722","9,17584","POINT (9.17584 45.42722)"
"MI0666","A.F.M. N. 25","13195220150","VIA DELLE FORZE ARMATE, 44","MILANO",,"20147","MI","15.146","45,46359860127","9,13237109274","POINT (9.132371092742 45.46359860127)"
"MI1796","MOIZIO & C. SNC","07355590964","CORSO XXII MARZO, 37","MILANO",,"20129","MI","15.146","45,46234039379","9,21781378296","POINT (9.217813782961 45.462340393785)"
"MI1718","CATTANEO","05665730965","VIALE SAN GIMIGNANO 13A","MILANO",,"20146","MI","15.146","45,4572465855","9,13596173243","POINT (9.135961732425 45.457246585496)"
"MI1647","SANT'ANTONIO SNC","03626410967","VIA PELLEGRINO ROSSI, 44","MILANO",,"20161","MI","15.146","45,51056341059","9,17613812218","POINT (9.176138122182 45.510563410591)"
"MI1768","TICINESE FARMA SRL - DEL GENTILINO","06819600963","VIA GIUSEPPE LAGRANGE, 2","MILANO",,"20136","MI","15.146","45,44890529264","9,17920380327","POINT (9.179203803269 45.448905292642)"
"MI1749","AMORETTI DI CRUPI NICOLA & C. SNC","06469250960","VIALE CARLO ESPINASSE, 30","MILANO",,"20156","MI","15.146","45,49555821135","9,14351927542","POINT (9.143519275423 45.495558211345)"
"MI2007","BLIGNY SAS DEL DR. GIOVANNI BRAMBILLA","12629830964","VIALE BLIGNY 23A","MILANO",,"20136","MI","15.146","45,45105160468","9,19235283006","POINT (9.192352830056 45.451051604678)"
"MI0947","A.F.M. N. 74","13195220150","PIAZZA MONTE FALTERONA, 3","MILANO",,"20148","MI","15.146","45,47362721314","9,14018847474","POINT (9.140188474739 45.473627213144)"
"MI2015","PLINIO SAS DR. BERNINI EDOARDO","12151280968","VIA PLINIO, 11","MILANO",,"20129","MI","15.146","45,47927158674","9,21264759694","POINT (9.212647596939 45.479271586742)"
"MI2025","SACCA SRL","03706040361","VIA DELLE FORZE ARMATE,212","MILANO",,"20152","MI","15.146","45,46067","9,11214","POINT (9.11214 45.46067)"
"MI0919","A.F.M. N. 63","13195220150","VIA GIOACCHINO MURAT, 5","MILANO",,"20159","MI","15.146","45,49708199943","9,19166316706","POINT (9.191663167063 45.497081999433)"
"MI1915","MONTE SANTO SRL","10561900969","PIAZZALE PRINCIPESSA CLOTILDE, 8","MILANO",,"20121","MI","15.146","45,47975300135","9,19337827209","POINT (9.193378272091 45.479753001351)"
"MI0929","A.F.M. N. 72","13195220150","VIA GRAN SAN BERNARDO, 6","MILANO",,"20154","MI","15.146","45,4884162012","9,16774222123","POINT (9.167742221229 45.488416201197)"
"MI1705","BICOCCA DR.GANDOLFI SNC DI ALESSANDRO E MATILDE GANDOLFI","05381100964","VIALE GIOVANNI SUZZANI, 273","MILANO",,"20162","MI","15.146","45,52606578242","9,20841582548","POINT (9.208415825483 45.526065782423)"
"MI1800","ROCCHI","07646670963","VIA LUIGI ALAMANNI, 2","MILANO",,"20141","MI","15.146","45,43429391712","9,20072643515","POINT (9.200726435148 45.434293917117)"
"MI0656","A.F.M. N. 07","13195220150","VIA DELLE FORZE ARMATE, 328","MILANO",,"20152","MI","15.146","45,46023620081","9,09786011516","POINT (9.09786011516 45.460236200811)"
"MI0889","A.F.M. N. 56","13195220150","VIA SAN PAOLINO, 18","MILANO",,"20142","MI","15.146","45,43112518053","9,16305187585","POINT (9.16305187585 45.431125180531)"
"MI1745","ANGOLO DELLA SALUTE SRL","06312070961","VIA PAOLO SARPI, 53","MILANO",,"20154","MI","15.146","45,48108161682","9,17276742364","POINT (9.172767423639 45.481081616823)"
"MI0686","A.F.M. N. 29","13195220150","VIA MICHELE LESSONA, 55","MILANO",,"20157","MI","15.146","45,51933218051","9,13537223317","POINT (9.135372233174 45.519332180507)"
"MI1897","TONALE DOTT. RIBALDONE GIAMPIERO E CIATTINI ROBERTO SNC","10318970968","VIA TONALE, 26","MILANO",,"20125","MI","15.146","45,48963928851","9,20152497906","POINT (9.201524979063 45.489639288508)"
"MI1806","LODI SNC DEI DR.CRISTINA E LUCA DEMARTINI","07765250969","CORSO LODI, 5","MILANO",,"20135","MI","15.146","45,45144920026","9,20388691556","POINT (9.203886915559 45.451449200256)"
"MI1993","SAN LUCA SNC DI NUOVA FARMACIA SAN LUCA SNC DEL DR.DANIELE SOFI E C.","12390020969","VIA ANTONIO CARNEVALI, 70","MILANO",,"20158","MI","15.146","45,50305092032","9,1705356581","POINT (9.1705356581 45.503050920322)"
"MI1947","DINAMICA SRL","11209770962","VIA LODOVICO IL MORO, 3","MILANO",,"20143","MI","15.146","45,44747659725","9,15551981384","POINT (9.155519813837 45.447476597246)"
"MI1973","DE MARCHI SRL","11844140969","VIA EMILIO DE MARCHI, 10","MILANO",,"20125","MI","15.146","45,50033380068","9,20915720482","POINT (9.209157204819 45.500333800679)"
"MI1708","FARINI SNC DELLA DOTT.SSA ANTONIETTA TRAVIERSO E C","05488940965","VIA ARNALDO DA BRESCIA, 1","MILANO",,"20159","MI","15.146","45,49017761624","9,18301723394","POINT (9.183017233938 45.49017761624)"
"MI1853","GRECO","09180910961","VIALE DELLE RIMEMBRANZE DI GRECO, 40","MILANO",,"20125","MI","15.146","45,49969099253","9,21207745989","POINT (9.212077459885 45.499690992525)"
"MI1959","DEL PARCO SRL","10912580965","VIA ANGELO RIZZOLI, 47","MILANO",,"20132","MI","15.146","45,50731471065","9,25307779073","POINT (9.253077790725 45.507314710648)"
"MI0910","A.F.M. N. 60","13195220150","VIA MARCO D'AGRATE, 8","MILANO",,"20139","MI","15.146","45,4369689177","9,21509502885","POINT (9.215095028847 45.436968917696)"
"MI1735","IMBRIANI SRL","05937180965","VIA DEGLI IMBRIANI, 35","MILANO",,"20158","MI","15.146","45,4998983189","9,16815469468","POINT (9.168154694684 45.4998983189)"
"MI0048","COOP.FARM.CANONICA","00774640155","VIA LUIGI CANONICA, 6","MILANO",,"20154","MI","15.146","45,47783291688","9,17690062391","POINT (9.176900623914 45.477832916881)"
"MI1716","OGGIARO SRL","04720760968","VIA GIUSEPPE UNGARETTI, 12","MILANO",,"20157","MI","15.146","45,5153586974","9,14217657835","POINT (9.142176578353 45.515358697397)"
"MI2002","AL PONTE SAS DEL DR. FRIGERIO GUIDO E C.","11795440962","PIAZZA COSTANTINO, 1","MILANO",,"20128","MI","15.146","45,50981930714","9,24749016261","POINT (9.247490162611 45.509819307136)"
"MI1941","SOLARI","11099220961","VIA ANDREA SOLARI, 40","MILANO",,"20144","MI","15.146","45,45441530433","9,15978678929","POINT (9.159786789287 45.454415304332)"
"MI2061","G. DUE SRL","14363570962","VIA ENRICO FALCK 19A","MILANO",,"20151","MI","15.146","45,49790300685","9,10401712596","POINT (9.104017125957 45.497903006849)"
"MI2050","MILANO VESUVIO","12283700966","PIAZZA VESUVIO, 14","MILANO",,"20144","MI","15.146","45,45902920675","9,16000371294","POINT (9.160003712941 45.459029206754)"
"MI1821","HUMANITAS TOSELLI & C. SNC","12588160155","VIA MELCHIORRE GIOIA, 43","MILANO",,"20124","MI","15.146","45,48695439728","9,19766519647","POINT (9.19766519647 45.486954397283)"
"MI1887","SANSOVINO SNC DELLA DOTT.SSA SANSONE FEDERICA & C.","10124080960","VIA SANSOVINO, 1","MILANO",,"20133","MI","15.146","45,47921840357","9,21754916628","POINT (9.217549166278 45.479218403566)"
"MI0901","A.F.M. N. 52","13195220150","PIAZZALE DIEGO VELASQUEZ, 7","MILANO",,"20148","MI","15.146","45,46781201636","9,14068426431","POINT (9.140684264312 45.467812016359)"
"MI0691","A.F.M. N. 12","13195220150","VIA PRIVATA IGLESIAS, 48","MILANO",,"20128","MI","15.146","45,50542953726","9,23352845175","POINT (9.233528451753 45.505429537259)"
"MI1764","CENTRO MILANO SRL","06769500965","VIA BROLETTO, 1","MILANO",,"20121","MI","15.146","45,46564169864","9,18637804538","POINT (9.186378045382 45.465641698638)"
"MI2019","GIANNONE SRL","13225390965","VIA CARLO FARINI, 5","MILANO",,"20154","MI","15.146","45,48362489579","9,18157780971","POINT (9.181577809705 45.483624895794)"
"MI1119","REMBRANDT","07666090159","VIA REMBRANDT,49","MILANO",,"20148","MI","15.146","45,467528","9,1342894","POINT (9.1342894 45.467528)"
"MI1547","CASTELVETRO SNC DI TAGLIABUE EMILIANO E POZZO FRANCESCA","11973480152","VIA PIERO DELLA FRANCESCA, 38","MILANO",,"20154","MI","15.146","45,48411209392","9,16369250471","POINT (9.163692504709 45.484112093916)"
"MI1965","CA' GRANDA SRL","11485280967","VIA MICHELE DE ANGELIS, 15","MILANO",,"20162","MI","15.146","45,50675651781","9,19323008004","POINT (9.193230080043 45.506756517806)"
"MI0654","A.F.M. N. 05","13195220150","VIA MAFFEO BAGAROTTI, 38","MILANO",,"20152","MI","15.146","45,45639909127","9,09151602029","POINT (9.091516020285 45.456399091266)"
"MI0705","A.F.M. N. 36","13195220150","VIA NIKOLAJEVKA, 4","MILANO",,"20152","MI","15.146","45,45874728144","9,10567146219","POINT (9.105671462186 45.458747281441)"
"MI1926","COLONNE DI SAN LORENZO DOTT.SSA STRAZIOTA CATERINA & C SNC","10823840961","CORSO DI PORTA TICINESE, 24","MILANO",,"20123","MI","15.146","45,45838878744","9,18092301543","POINT (9.180923015429 45.458388787442)"
"MI1624","CENTRALE SNC","13261480159","VIA SPADARI, 13","MILANO",,"20123","MI","15.146","45,4637793151","9,18670828882","POINT (9.18670828882 45.463779315103)"
"MI2029","DR.MAX MILANO PORTA NUOVA","03664141201","PIAZZA GAE AULENTI,1","MILANO",,"20124","MI","15.146","45,48385339","9,18925354","POINT (9.18925354 45.48385339)"
"MI1935","PIAVE","11018930963","VIA FELICE BELLOTTI, 1","MILANO",,"20129","MI","15.146","45,47080368524","9,20707547535","POINT (9.207075475346 45.47080368524)"
"MI2038","LAFARMACIA.PONTENUOVO SRL","13842170964","VIA PONTE NUOVO, 40","MILANO",,"20128","MI","15.146","45,50769608724","9,23681790439","POINT (9.236817904393 45.507696087243)"
"MI0684","A.F.M. N. 28","13195220150","VIA TEODOSIO, 74","MILANO",,"20131","MI","15.146","45,48821440688","9,23008757142","POINT (9.230087571419 45.488214406878)"
"MI1633","LA PIAZZETTA SRL","13475660158","VIA SABATINO LOPEZ, 3","MILANO",,"20157","MI","15.146","45,51508561499","9,14540268907","POINT (9.145402689066 45.515085614992)"
"MI2052","PIAZZA GRAMSCI","03860200967","VIA PAOLO SARPI, 62","MILANO",,"20154","MI","15.146","45,48103170259","9,17056750933","POINT (9.170567509332 45.48103170259)"
"MI0657","A.F.M. N. 11","13195220150","VIA LIVIGNO, 6","MILANO",,"20158","MI","15.146","45,49839691049","9,17891437615","POINT (9.178914376152 45.498396910493)"
"MI1783","CINQUE GIORNATE SNC","07111920968","PIAZZA CINQUE GIORNATE, 7","MILANO",,"20129","MI","15.146","45,46254067936","9,20778936204","POINT (9.207789362039 45.462540679361)"
"MI1685","MONTEGANI SRL UNIPERSONALE","05133410968","VIA ANTON GIULIO BARRILI, 20","MILANO",,"20141","MI","15.146","45,43385558549","9,17742901909","POINT (9.17742901909 45.43385558549)"
"MI0699","A.F.M. N. 30","13195220150","VIA FRANCESCO PIZZOLPASSO, 5","MILANO",,"20138","MI","15.146","45,43563229751","9,24063049687","POINT (9.240630496871 45.435632297506)"
"MI1812","IGEA SRL","07980390962","VIA GUSTAVO MODENA, 25","MILANO",,"20129","MI","15.146","45,470896892","9,21562652533","POINT (9.215626525327 45.470896892003)"
"MI0680","A.F.M. N. 26","13195220150","VIA CESARE PASCARELLA, 22","MILANO",,"20157","MI","15.146","45,51704798616","9,14321677254","POINT (9.143216772537 45.517047986163)"
"MI1997","BERTOLINI SAS DELLA DR.SSA BERTOLINI ISABELLA","12238550961","VIA MICHELE SAPONARO, 34","MILANO",,"20142","MI","15.146","45,40709531187","9,17407148014","POINT (9.174071480135 45.407095311865)"
"MI0902","A.F.M. N. 55","13195220150","VIA CARLO IMBONATI, 24","MILANO",,"20159","MI","15.146","45,50215099729","9,18245749044","POINT (9.182457490443 45.502150997288)"
"MI0639","A.F.M. N. 82","13195220150","VIA PIETRO TOSELLI, 2","MILANO",,"20127","MI","15.146","45,50019751093","9,23487414105","POINT (9.234874141046 45.500197510934)"
"MI1430","ITALIA SNC","10843300152","CORSO INDIPENDENZA, 14","MILANO",,"20129","MI","15.146","45,46754811214","9,21364688744","POINT (9.213646887435 45.467548112137)"
"MI1892","CASTELLI SNC DOTT.SSE GIORGIA PAVAN E DALILA PEDRETTI","10151100962","PIAZZA POMPEO CASTELLI, 14","MILANO",,"20156","MI","15.146","45,49955549906","9,15103096941","POINT (9.151030969411 45.49955549906)"
"MI0052","COOP.FARM.S.AGNESE","00774640155","GIARDINO ARISTIDE CALDERINI, 3","MILANO",,"20123","MI","15.146","45,46500730583","9,17754762302","POINT (9.17754762302 45.465007305827)"
"MI2018","CANONICA SNC DEL DR. PIERCARLO MANELLI","13228000967","VIA LUIGI CANONICA, 32","MILANO",,"20154","MI","15.146","45,47895919321","9,17450692001","POINT (9.174506920005 45.478959193211)"
"MI2051","MILANO SETTEMBRINI","12283700966","VIA LUIGI SETTEMBRINI, 39","MILANO",,"20124","MI","15.146","45,48390200151","9,20806738977","POINT (9.208067389768 45.483902001513)"
"MI1841","AMADEO SAS","08906970960","VIA GIOVANNI ANTONIO AMADEO,40","MILANO",,"20133","MI","15.146","45,47084349","9,23468806","POINT (9.23468806 45.47084349)"
"MI1859","DELLE QUERCE SAS","09065840960","VIA GEROLAMO FORNI, 34","MILANO",,"20161","MI","15.146","45,52519301676","9,16734760123","POINT (9.167347601227 45.525193016755)"
"MI1906","LAFARMACIA.BONOLA SRL","10425280962","VIA UGO BETTI 159B","MILANO",,"20151","MI","15.146","45,49590270757","9,10901307553","POINT (9.109013075525 45.495902707566)"
"MI1142","FIORDALISI","08121600152","VIA DEI FIORDALISI, 2","MILANO",,"20146","MI","15.146","45,45054198497","9,13721876644","POINT (9.137218766444 45.450541984965)"
"MI0880","A.F.M. N. 54","13195220150","VIA GIOVANNI SCHEIWILLER, 2","MILANO",,"20139","MI","15.146","45,44409491841","9,22222786081","POINT (9.222227860811 45.444094918409)"
"MI1692","SCHIAVIO SNC","05271460965","VIA GIOSUE' CARDUCCI, 11","MILANO",,"20123","MI","15.146","45,46620151748","9,17608531619","POINT (9.176085316192 45.466201517482)"
"MI1870","SEMPIO SNC","09699540960","VIA LODOVICO MONTEGANI, 4","MILANO",,"20141","MI","15.146","45,43694481973","9,17805799711","POINT (9.178057997105 45.436944819725)"
"MI0716","A.F.M. N. 80","13195220150","PIAZZALE FRATELLI ZAVATTARI, 4","MILANO",,"20149","MI","15.146","45,47574699646","9,14366478526","POINT (9.143664785262 45.475746996457)"
"MI2023","REPUBBLICA SRL","13393680965","VIALE TUNISIA, 41","MILANO",,"20124","MI","15.146","45,47974181151","9,19983300809","POINT (9.199833008088 45.47974181151)"
"MI1954","NOVARA SRL (EX ARCHIMEDE)","08267990961","VIA ARCHIMEDE, 20","MILANO",,"20129","MI","15.146","45,46507008628","9,21157890428","POINT (9.211578904284 45.465070086282)"
"MI0101","TICINESE","01660590157","CORSO SAN GOTTARDO, 1","MILANO",,"20136","MI","15.146","45,45179818079","9,18022991586","POINT (9.180229915856 45.451798180794)"
"MI0672","A.F.M. N. 81","13195220150","VIA LUIGI CHIARELLI, 10","MILANO",,"20151","MI","15.146","45,49126378516","9,12153723143","POINT (9.121537231431 45.491263785163)"
"MI0057","COOP.FARM.LAMARMORA","00774640155","VIA ALFONSO LAMARMORA, 2","MILANO",,"20122","MI","15.146","45,45607848347","9,19645761568","POINT (9.196457615679 45.45607848347)"
"MI0660","A.F.M. N. 19","13195220150","PIAZZA PREALPI, 3","MILANO",,"20155","MI","15.146","45,49458800605","9,15363782512","POINT (9.153637825117 45.494588006052)"
"MI0595","TOSCHI","00793230152","VIALE CORSICA, 42","MILANO",,"20137","MI","15.146","45,46197791838","9,22877110971","POINT (9.228771109706 45.461977918382)"
"MI2045","GESTIONI SAN GIUSEPPE SRL","04638170961","VIA SAN VITTORE, 12","MILANO",,"20123","MI","15.146","45,46300072012","9,17180031965","POINT (9.171800319651 45.463000720117)"
"MI0694","A.F.M. N. 37","13195220150","VIA VETTA D'ITALIA, 18","MILANO",,"20144","MI","15.146","45,46056519051","9,15744496936","POINT (9.157444969359 45.460565190511)"
"MI1996","PROCACCINI SRL (EX MADONNINA)","03207930961","VIA UGO BETTI 42B","MILANO",,"20151","MI","15.146","45,49265790521","9,11166200839","POINT (9.111662008386 45.492657905208)"
"MI1732","RAIMONDI SNC & C.","05752140961","LARGO LA FOPPA, 1","MILANO",,"20121","MI","15.146","45,47818089159","9,18425557631","POINT (9.184255576313 45.478180891591)"
"MI1539","MEAZZA SAS DEL DOTT. LORENZO LOCATELLI & C.","11978270152","VIA DELLE FORZE ARMATE, 4","MILANO",,"20147","MI","15.146","45,46371041586","9,13943896496","POINT (9.139438964957 45.463710415859)"
"MI1018","A.F.M. N. 83","13195220150","VIALE MONZA, 226","MILANO",,"20128","MI","15.146","45,51306448668","9,22508147975","POINT (9.225081479747 45.513064486679)"
"MI0922","A.F.M. N. 66","13195220150","VIA ALCUINO, 18","MILANO",,"20149","MI","15.146","45,48341840761","9,15633126588","POINT (9.156331265884 45.483418407609)"
"MI2033","DR.MAX MILANO ALTAMURA","12283700966","VIA SAVERIO ALTAMURA, 20","MILANO",,"20148","MI","15.146","45,47000861981","9,1401795061","POINT (9.140179506103 45.470008619814)"
"MI1591","HUMANITAS","12588160155","VIA FABIO FILZI, 10","MILANO",,"20124","MI","15.146","45,48312499909","9,19969110247","POINT (9.199691102467 45.483124999089)"
"MI1626","MACCIONI SNC","13148090155","VIA LEPONTINA, 13","MILANO",,"20159","MI","15.146","45,49334601755","9,18440578002","POINT (9.184405780018 45.493346017549)"
"MI1671","SAN LUIGI SNC SASSONE & C.","04546580962","CORSO LODI, 62","MILANO",,"20139","MI","15.146","45,4445255806","9,214356667","POINT (9.214356666996 45.444525580595)"
"MI2014","MALPIGHI SNC DI GUFFANTI GIAN PAOLO, CHIARA E GIORGIO","12867160967","VIA MARCELLO MALPIGHI, 12","MILANO",,"20129","MI","15.146","45,47481580892","9,20796613638","POINT (9.207966136377 45.474815808923)"
"MI2065","CASTELMORRONE SRL","14414600966","VIA CASTEL MORRONE, 6","MILANO",,"20129","MI","15.146","45,46911712059","9,21492688787","POINT (9.214926887869 45.469117120592)"
"MI1725","CALATAFIMI SAS","05707780960","PIAZZALE DI PORTA LODOVICA, 2","MILANO",,"20136","MI","15.146","45,4521174894","9,18585366997","POINT (9.185853669972 45.452117489396)"
"MI1635","VAL DI SOLE","01663790184","VIA VAL DI SOLE, 22","MILANO",,"20141","MI","15.146","45,43007878374","9,20358675961","POINT (9.203586759606 45.430078783738)"
"MI1604","SAN GUIDO","13056950150","VIALE CARLO ESPINASSE, 172","MILANO",,"20156","MI","15.146","45,50438058353","9,13735622966","POINT (9.137356229656 45.504380583532)"
"MI1831","CONFALONIERI SNC","08830300961","VIALE MONZA, 63","MILANO",,"20125","MI","15.146","45,49317779275","9,2186260732","POINT (9.218626073198 45.493177792753)"
"MI2011","AMBROSIANA SNC DEL DR. SLAVIERO GIOVANNI & C.","12673910969","VIALE REGINA GIOVANNA, 42","MILANO",,"20129","MI","15.146","45,47307539055","9,21421166007","POINT (9.214211660071 45.473075390548)"
"MI0928","A.F.M. N. 71","13195220150","VIA LUISA BATTISTOTTI SASSI, 24","MILANO",,"20133","MI","15.146","45,46442220708","9,22790861187","POINT (9.227908611869 45.464422207076)"
"MI1990","SANTA RITA SRL","12091650965","PIAZZALE GABRIELE ROSA, 11","MILANO",,"20139","MI","15.146","45,4380778854","9,22381120232","POINT (9.223811202321 45.438077885396)"
"MI1969","VIALBA SNC DEL DR. GHIRELLI PARIDE E C.","10864030969","VIA ARSIA, 14","MILANO",,"20157","MI","15.146","45,51596068568","9,12797972985","POINT (9.12797972985 45.515960685683)"
"MI0055","COOP.FARM.BAIAMONTI","00774640155","PIAZZA ANTONIO BAIAMONTI, 1","MILANO",,"20154","MI","15.146","45,4821164885","9,18126122522","POINT (9.181261225222 45.482116488499)"
"MI1918","SANITAS SAS DI ZAMPRONI MONICA","10572440963","CORSO GIUSEPPE GARIBALDI,49","MILANO",,"20121","MI","15.146","45,47417764","9,18349645","POINT (9.18349645 45.47417764)"
"MI0421","A.F.M. N. 42","13195220150","VIA SALVATORE BARZILAI, 1","MILANO",,"20146","MI","15.146","45,452060702","9,1412827322","POINT (9.141282732199 45.452060702002)"
"MI1804","CERINI SNC","07734420966","VIA AURELIO SAFFI, 6","MILANO",,"20123","MI","15.146","45,46934280334","9,17181498798","POINT (9.171814987982 45.469342803335)"
"MI1928","VITRUVIO","10881640964","VIA VITRUVIO, 39","MILANO",,"20124","MI","15.146","45,482210282","9,206807925","POINT (9.206807924996 45.482210281995)"
"MI1901","PASUBIO FARMA ACQUISITION SRL","02489000998","VIALE PASUBIO, 6","MILANO",,"20154","MI","15.146","45,48137079248","9,18554119262","POINT (9.185541192622 45.481370792483)"
"MI1904","CORVETTO FARMA ACQUISITION SRL","02489000998","VIALE LUCANIA, 6","MILANO",,"20139","MI","15.146","45,4409771857","9,22453380619","POINT (9.224533806194 45.440977185704)"
"MI0665","A.F.M. N. 23","13195220150","VIA MONTE SUELLO, 1","MILANO",,"20133","MI","15.146","45,46376988546","9,23053374013","POINT (9.230533740125 45.463769885462)"
"MI1422","INTERNAZIONALE BOLIVAR","11022640152","PIAZZA SIMONE BOLIVAR, 11","MILANO",,"20146","MI","15.146","45,45473079917","9,15189640091","POINT (9.151896400914 45.454730799168)"
"MI1757","COMASINA SAS DELLA DOTT.SSA VERCESI LAURA & C.","06579460962","PIAZZA CARDINALE PIETRO GASPARRI, 9","MILANO",,"20161","MI","15.146","45,5266937127","9,16239766831","POINT (9.162397668307 45.5266937127)"
"MI1709","NIGUARDA SRL","05381520963","VIA MONTE ROTONDO, 1","MILANO",,"20162","MI","15.146","45,51521888725","9,19409785848","POINT (9.194097858478 45.515218887252)"
"MI1875","ALLEANZA DI DR. BERCHI & C SAS","09915720966","VIA CESARE CORRENTI, 2","MILANO",,"20123","MI","15.146","45,46009358273","9,18062822389","POINT (9.180628223894 45.460093582729)"
"MI1817","DEL DUOMO SAS DI HIPPO 41 FARMA SRL","08052330969","VIA SAN CLEMENTE","MILANO",,"20122","MI","15.146","45,46295700849","9,19364762455","POINT (9.193647624549 45.462957008492)"
"MI1975","CANOSSA SRL","12021210963","CORSO SEMPIONE, 67","MILANO",,"20149","MI","15.146","45,48442800785","9,16006900797","POINT (9.160069007967 45.484428007847)"
"MI1809","ORIO SNC","07830220963","PIAZZA 6 FEBBRAIO, 16","MILANO",,"20145","MI","15.146","45,47756658191","9,16158470752","POINT (9.161584707518 45.477566581907)"
"MI1770","LORENTEGGIO SNC","13457600156","VIA LORENTEGGIO, 208","MILANO",,"20147","MI","15.146","45,44703197919","9,1269418826","POINT (9.126941882599 45.447031979192)"
"MI0047","COOP.FARM.VITTORIA","00774640155","VIA FONTANA, 1","MILANO",,"20122","MI","15.146","45,46208118343","9,20340696778","POINT (9.203406967783 45.462081183429)"
"MI1936","MAC MAHON SRL","11028410964","VIA PRINCIPE EUGENIO, 19","MILANO",,"20155","MI","15.146","45,4896669907","9,1640461372","POINT (9.164046137204 45.489666990698)"
"MI1907","DURINI FARMA ACQUISITION SRL","02489000998","GALLERIA PASSARELLA, 1","MILANO",,"20122","MI","15.146","45,46567421195","9,1971808901","POINT (9.197180890104 45.465674211954)"
"MI1717","PAOLO SARPI SRL","05565080966","VIA PAOLO SARPI, 25","MILANO",,"20154","MI","15.146","45,48134380275","9,17614248077","POINT (9.176142480772 45.481343802754)"
"MI0410","A.F.M. N. 44","13195220150","PIAZZA ROSA SCOLARI, 3","MILANO",,"20151","MI","15.146","45,49039449798","9,10079512238","POINT (9.100795122376 45.490394497984)"
"MI2055","DELLA ROGGIA","05632870878","VIALE TOSCANA, 17","MILANO",,"20136","MI","15.146","45,44616009362","9,19537081811","POINT (9.195370818114 45.446160093623)"
"MI0700","A.F.M. N. 21","13195220150","VIA GIAN RINALDO CARLI, 14","MILANO",,"20161","MI","15.146","45,52112791944","9,17124719786","POINT (9.171247197861 45.521127919443)"
"MI1820","NOVARA SRL","08267990961","VIA NOVARA,90","MILANO",,"20153","MI","15.146","45,47247759","9,11970245","POINT (9.11970245 45.47247759)"
"MI2006","FALQUI MILANO SRL","12620740964","VIALE ZARA, 145","MILANO",,"20159","MI","15.146","45,50084228884","9,19707167391","POINT (9.197071673906 45.500842288835)"
"MI1650","PIMPINELLI","03709730968","VIA ANTONIO ALDINI, 108","MILANO",,"20157","MI","15.146","45,5112712204","9,12927448243","POINT (9.129274482433 45.511271220404)"
"MI1766","ROMA SNC","06700780965","VIA PIACENZA, 24","MILANO",,"20135","MI","15.146","45,44922388878","9,20553002004","POINT (9.205530020038 45.449223888781)"
"MI1919","PENNAGLIA SAS DELLA DOTT.SSA ANNA MARIA PENNAGLIA","10579760967","VIA MONTE PALOMBINO, 9","MILANO",,"20138","MI","15.146","45,43203159954","9,24412080517","POINT (9.244120805172 45.43203159954)"
"MI0931","A.F.M. N. 68","13195220150","PIAZZA ERNESTO DE ANGELI, 1","MILANO",,"20146","MI","15.146","45,46606208452","9,15071321146","POINT (9.150713211461 45.466062084523)"
"MI1359","ITALO INGLESE SNC","09617280152","VIA EMILIO LUSSU, 1","MILANO",,"20128","MI","15.146","45,51761711739","9,24459689727","POINT (9.244596897273 45.517617117389)"
"MI1929","DEL NAVIGLIO SRL","10878880961","VIALE CARLO TROYA, 11","MILANO",,"20144","MI","15.146","45,45149970122","9,15508043447","POINT (9.155080434473 45.451499701222)"
"MI0655","A.F.M. N. 06","13195220150","PIAZZA MONTI GIOSIA","MILANO",,"20153","MI","15.146","45,47547211194","9,08880413933","POINT (9.088804139331 45.475472111942)"
"MI1700","CASARSA SRL","05322110965","VIA CASARSA, 13","MILANO",,"20161","MI","15.146","45,52489369899","9,17444598357","POINT (9.174445983569 45.524893698993)"
"MI1895","ORNATO SRL","10312850968","VIA LUIGI ORNATO 13A","MILANO",,"20162","MI","15.146","45,5158855","9,1909709057","POINT (9.1909709057 45.5158855)"
"MI1627","SAN CRISTOFORO SAS","12772080151","PIAZZA TIRANA,2","MILANO",,"20147","MI","15.146","45,44477381","9,12863444","POINT (9.12863444 45.44477381)"
"MI2040","PREMUDA SAS DEL DR. DEL GENOVESE EDOARDO MARIO VINCENZO & C.","13866670964","VIA PASQUALE SOTTOCORNO, 1","MILANO",,"20129","MI","15.146","45,46543889002","9,20764410366","POINT (9.207644103657 45.465438890022)"
"MI0862","A.F.M. N. 49","13195220150","VIA FRATELLI ZANZOTTERA, 12","MILANO",,"20153","MI","15.146","45,49292952078","9,07314699566","POINT (9.073146995657 45.492929520781)"
"MI1723","BRIANZA SRL","05675450968","VIALE BRIANZA, 23","MILANO",,"20127","MI","15.146","45,48792078881","9,21196413655","POINT (9.211964136554 45.48792078881)"
"MI0920","A.F.M. N. 64","13195220150","VIA ABBAZIA, 4","MILANO",,"20125","MI","15.146","45,50067280675","9,19883698653","POINT (9.198836986534 45.500672806753)"
"MI1962","BIAZZI DELLA DR.SSA BIAZZI VALERIA SAS","11442380967","VIA GIAMBELLINO,131/5","MILANO",,"20147","MI","15.146","45,44623228","9,13518277","POINT (9.13518277 45.44623228)"
"MI1540","OMERO","11963310153","VIA NICOLO' BARABINO, 3","MILANO",,"20139","MI","15.146","45,43418478474","9,22338054014","POINT (9.223380540136 45.434184784738)"
"MI1747","TOMMASEO SRL","06384400963","VIA LORENZO MASCHERONI, 16","MILANO",,"20145","MI","15.146","45,47009780326","9,16542940269","POINT (9.165429402685 45.470097803264)"
"MI1798","FIORE SNC DELLE DR.SSE FIORE BARBARA E SIMONA","07561670964","VIA GAETANO STRIGELLI, 2","MILANO",,"20135","MI","15.146","45,45576998752","9,21736233366","POINT (9.217362333656 45.455769987523)"
"MI0706","A.F.M. N. 09","13195220150","VIA MECENATE, 8","MILANO",,"20138","MI","15.146","45,45639058364","9,24291037454","POINT (9.242910374535 45.456390583635)"
"MI2028","DR.MAX MILANO SAINT BON","12283700966","VIA SIMONE SAINT BON, 2","MILANO",,"20147","MI","15.146","45,4611284125","9,12016922101","POINT (9.120169221014 45.461128412495)"
"MI0685","A.F.M. N. 17","13195220150","VIALE UNGHERIA, 4","MILANO",,"20138","MI","15.146","45,4455306127","9,24292990437","POINT (9.242929904369 45.445530612695)"
"MI2005","DELLA CITTADELLA SAS DELLA DR.SSA FILOMENI MARIACRISTINA","12608800962","CORSO DI PORTA TICINESE, 50","MILANO",,"20123","MI","15.146","45,45666680925","9,18073241095","POINT (9.180732410951 45.456666809254)"
"MI1995","ZANOTTA SAS","12308750962","VIA LUIGI PULCI, 19","MILANO",,"20126","MI","15.146","45,51445609215","9,20761401263","POINT (9.207614012625 45.514456092154)"
"MI1677","PONTE VITTORIA SNC","04900610967","VIA UBERTO VISCONTI DI MODRONE, 1","MILANO",,"20122","MI","15.146","45,4635159138","9,19893295933","POINT (9.198932959325 45.463515913795)"
"MI1848","PALAZZOLO","09127160969","VIALE MONTE NERO, 37","MILANO",,"20135","MI","15.146","45,45696160079","9,20501159933","POINT (9.205011599327 45.456961600788)"
"MI1205","SAN GOTTARDO","09006400155","VIA PAVIA, 1","MILANO",,"20136","MI","15.146","45,44722011101","9,17917807083","POINT (9.179178070826 45.447220111008)"
"MI1944","CHIESA ROSSA SAS DI NORBERTO LUMINI & C","11077810965","VIA MEDEGHINO, 27","MILANO",,"20141","MI","15.146","45,43089329518","9,17971149514","POINT (9.179711495144 45.43089329518)"
"MI1917","SAN BABILA FARMA SRL","10393660963","VIA DELLA SPIGA, 2","MILANO",,"20121","MI","15.146","45,46868121972","9,19873657133","POINT (9.198736571334 45.468681219718)"
"MI1646","QUAI","03610970968","VIA FRATELLI FRASCHINI, 8","MILANO",,"20142","MI","15.146","45,41815980124","9,17801013644","POINT (9.178010136438 45.418159801242)"
"MI0903","A.F.M. N. 14","13195220150","VIA GRIGNA, 9","MILANO",,"20155","MI","15.146","45,49306241586","9,15676092224","POINT (9.15676092224 45.493062415855)"
"MI1736","COMINA SRL","05905960968","VIA DELLE ANDE, 5","MILANO",,"20151","MI","15.146","45,4942477846","9,12553363905","POINT (9.125533639046 45.494247784603)"
"MI0013","PONTESEVESO","01533800155","VIA GIOVANNI SCHIAPARELLI, 4","MILANO",,"20125","MI","15.146","45,48957441258","9,20539297592","POINT (9.205392975921 45.489574412578)"
"MI1943","DEL CORSO SRL","10945450962","CORSO GENOVA, 23","MILANO",,"20123","MI","15.146","45,45668348924","9,17497127744","POINT (9.174971277441 45.456683489241)"
"MI0669","A.F.M. N. 10","13195220150","VIA PALANZONE, 33","MILANO",,"20162","MI","15.146","45,51845069766","9,19220296163","POINT (9.192202961627 45.51845069766)"
"MI2003","DR.MAX ITALIA SRL - INSUBRIA","03664141201","PIAZZA INSUBRIA, 11","MILANO",,"20137","MI","15.146","45,45228508555","9,22083788981","POINT (9.220837889808 45.45228508555)"
"MI0242","ROMBON","04113380150","VIA ROMBON, 29","MILANO",,"20134","MI","15.146","45,48640018585","9,24076041637","POINT (9.24076041637 45.486400185845)"
"MI1968","FARAM SNC DI ALBERO DUE SRL (EX SANT' EUSTORGIO)","03860200967","CORSO DI PORTA TICINESE, 98","MILANO",,"20123","MI","15.146","45,45377488502","9,1803023355","POINT (9.180302335499 45.45377488502)"
"MI1905","VENEZIA FARMA ACQUISITION SRL","02489000998","CORSO BUENOS AIRES, 22","MILANO",,"20124","MI","15.146","45,47784100542","9,20869326648","POINT (9.208693266478 45.477841005417)"
"MI0971","A.F.M. N. 77","13195220150","VIA MONTE NEVOSO,1","MILANO",,"20131","MI","15.146","45,48631879757","9,23435320576","POINT (9.234353205764 45.486318797565)"
"MI0946","A.F.M. N. 73","13195220150","VIA ANGELO INGANNI, 40","MILANO",,"20147","MI","15.146","45,45144961935","9,12576481194","POINT (9.125764811936 45.451449619351)"
"MI1979","SALGARI SRL","12094200966","VIA ALBERTO CARONCINI, 6","MILANO",,"20137","MI","15.146","45,44976858676","9,2197240187","POINT (9.219724018695 45.449768586759)"
"MI0879","A.F.M. N. 51","13195220150","VIA MARIO PIERI, 2","MILANO",,"20127","MI","15.146","45,50755820494","9,24416757619","POINT (9.244167576192 45.507558204936)"
"MI2032","QT8 SAS DEL DOTT. IVAN MASTROTA & C.","13682520963","VIA COLLECCHIO, 4","MILANO",,"20148","MI","15.146","45,48613179731","9,14237221197","POINT (9.142372211973 45.486131797305)"
"MI1803","ABBAZIA DI CHIARAVALLE & C.","07712200968","VIA COMACCHIO, 4","MILANO",,"20139","MI","15.146","45,43750259347","9,21898347755","POINT (9.218983477549 45.437502593471)"
"MI0664","A.F.M. N. 22","13195220150","VIA FRATELLI ZOIA, 43","MILANO",,"20153","MI","15.146","45,47386500774","9,10932622343","POINT (9.109326223428 45.473865007737)"
"MI1793","VERCESI  SAS & C.","07492520965","VIA 5 MAGGIO, 1","MILANO",,"20157","MI","15.146","45,50946508791","9,13183884189","POINT (9.131838841891 45.509465087908)"
"MI2039","RIPAMONTI SAS DI FARAM SNC DI ALBERO DUE SRL","13851320963","VIA GIOVANNI BELLEZZA, 2","MILANO",,"20136","MI","15.146","45,448752281","9,19697838332","POINT (9.196978383324 45.448752280999)"
"MI1616","SANTA MARIA NASCENTE SNC","12827200150","VIA PERGINE, 2","MILANO",,"20148","MI","15.146","45,48727450217","9,13767893293","POINT (9.137678932928 45.487274502165)"
"MI1840","MINERVA DR. MARCEAU SRL","08923090966","VIA CREMA, 17","MILANO",,"20135","MI","15.146","45,44909920797","9,2028358249","POINT (9.202835824901 45.449099207972)"
"MI2064","ANTICA FARMACIA DIANA SNC DEL DOTT. DAMIOLI SILVIO","14435970968","PIAZZA GUGLIELMO OBERDAN, 4","MILANO",,"20129","MI","15.146","45,47416889364","9,20670742598","POINT (9.206707425977 45.474168893636)"
"MI0912","A.F.M. N. 62","13195220150","VIA ILLIRICO, 11","MILANO",,"20133","MI","15.146","45,47063910657","9,23224842606","POINT (9.232248426058 45.470639106571)"
"MI1858","MONTENERO","09121070966","VIALE MONTE NERO, 59","MILANO",,"20135","MI","15.146","45,45955688947","9,20677498412","POINT (9.206774984117 45.459556889469)"
"MI1989","V ALPINI SAS DI PERRECA DR.SSA PATRIZIA","12246290964","LARGO QUINTO ALPINI, 1","MILANO",,"20145","MI","15.146","45,47188381919","9,16734818796","POINT (9.16734818796 45.471883819193)"
"MI1670","UMBRIA SAS DI U.POZZI & C.","04622770966","VIALE UMBRIA, 109","MILANO",,"20135","MI","15.146","45,4580996956","9,21707014051","POINT (9.217070140511 45.458099695602)"
"MI1815","UMANITARIA SRL","07980640960","VIA ACHILLE MAIOCCHI, 14","MILANO",,"20129","MI","15.146","45,47515070787","9,21324623246","POINT (9.213246232464 45.475150707865)"
"MI1955","TICINESE FARMA SRL - STAZIONE PORTA GENOVA","06819600963","PIAZZALE STAZIONE GENOVA","MILANO",,"20144","MI","15.146","45,45375600478","9,17002025487","POINT (9.170020254874 45.453756004783)"
"MI1999","VIGENTINO SRL","12453830965","VIA GIUSEPPE RIPAMONTI, 108","MILANO",,"20141","MI","15.146","45,43993808117","9,19968540277","POINT (9.199685402773 45.439938081168)"
"MI0636","A.F.M. N. 45","13195220150","VIA DELLE BETULLE, 36","MILANO",,"20152","MI","15.146","45,45410219834","9,07907073809","POINT (9.079070738088 45.454102198339)"
"MI1485","SAN GIORGIO","11395060152","VIA TORINO, 48","MILANO",,"20123","MI","15.146","45,46117958401","9,18467601258","POINT (9.184676012576 45.461179584014)"
"MI0886","A.F.M. N. 46","13195220150","VIA DEI CIGNOLI, 1","MILANO",,"20151","MI","15.146","45,49559660046","9,1340903049","POINT (9.134090304903 45.495596600462)"
"MI1165","LAMPUGNANO","08299490154","VIA GIULIO NATTA, 20","MILANO",,"20151","MI","15.146","45,4886293949","9,11820542492","POINT (9.118205424919 45.488629394904)"
"MI0051","COOP.FARM.BIGLI","00774640155","VIA BIGLI, 28","MILANO",,"20121","MI","15.146","45,46969840558","9,1926419219","POINT (9.192641921897 45.469698405578)"
"MI1731","ANTICA FARMACIA DI BRERA SRL","05824090962","VIA FIORI OSCURI, 3","MILANO",,"20121","MI","15.146","45,47246091323","9,18801762592","POINT (9.188017625915 45.472460913226)"
"MI0921","A.F.M. N. 65","13195220150","VIA MARCONA, 72","MILANO",,"20129","MI","15.146","45,46401032035","9,22123494056","POINT (9.221234940561 45.464010320354)"
"MI1504","GALILEO SNC","11632930159","VIA VINCENZO VIVIANI, 2","MILANO",,"20124","MI","15.146","45,48158520157","9,19726680461","POINT (9.197266804612 45.481585201566)"
"MI1939","MELOZZO DA FORLI' SAS DEI DOTTORI LEARCO E MARCELLO SANDI & C.","11060720965","VIA NOVARA, 3","MILANO",,"20147","MI","15.146","45,46796230388","9,12917473779","POINT (9.129174737786 45.467962303882)"
"MI2027","CARROBBIO SRL","13459130962","VIA STAMPA, 14","MILANO",,"20123","MI","15.146","45,46036829961","9,18186488989","POINT (9.181864889889 45.460368299606)"
"MI1324","LAGHI","10224840156","VIALE CERTOSA, 282","MILANO",,"20156","MI","15.146","45,50208230759","9,12554587663","POINT (9.125545876625 45.502082307591)"
"MI0899","A.F.M. N. 57","13195220150","VIA SIMONE SAINT BON, 38","MILANO",,"20147","MI","15.146","45,45780649663","9,12190293387","POINT (9.121902933867 45.457806496628)"
"MI1869","REALE","09517590965","VIA LARGA, 16","MILANO",,"20122","MI","15.146","45,461267594","9,19153081681","POINT (9.191530816812 45.461267593997)"
"MI1750","WASHINGTON SNC","06393130965","VIA ETNA, 2","MILANO",,"20144","MI","15.146","45,46156460674","9,15583706887","POINT (9.155837068872 45.461564606736)"
"MI1986","SANT'ANNA SNC  DELLA  DOTT.SSA CRISTINA BRAVI & DEL DOTT. MARIO UBEZIO","12150970965","VIA PIER ALESSANDRO PARAVIA, 73","MILANO",,"20148","MI","15.146","45,4735472917","9,13404236042","POINT (9.134042360417 45.473547291697)"
"MI0659","A.F.M. N. 15","13195220150","VIA PIER LOMBARDO, 19","MILANO",,"20135","MI","15.146","45,45388581951","9,20756346975","POINT (9.207563469749 45.453885819509)"
"MI2010","PISANI 26 SRL","12659860964","VIA VITTOR PISANI, 26","MILANO",,"20124","MI","15.146","45,48346631019","9,20232092459","POINT (9.202320924589 45.483466310186)"
"MI0927","A.F.M. N. 70","13195220150","VIALE FAMAGOSTA, 36","MILANO",,"20142","MI","15.146","45,43701040812","9,16110777723","POINT (9.161107777227 45.437010408117)"
"MI1931","AMBRECK SRL","10957030967","VIA ANTONIO STRADIVARI, 1","MILANO",,"20131","MI","15.146","45,48439619852","9,21573339459","POINT (9.215733394593 45.484396198524)"
"MI1597","EREDI CATALUCCI SNC","12041830154","RIPA DI PORTA TICINESE, 99","MILANO",,"20143","MI","15.146","45,44907800176","9,16313351559","POINT (9.163133515587 45.449078001757)"
"MI2059","DR.MAX MILANO BAUSAN","03664141201","PIAZZA GIOVANNI BAUSAN, 3","MILANO",,"20158","MI","15.146","45,50202438864","9,16500628421","POINT (9.165006284213 45.50202438864)"
"MI1830","OLMI SNC","08716030963","VIA DELLE BETULLE, 10","MILANO",,"20152","MI","15.146","45,45320308782","9,08345261299","POINT (9.083452612988 45.453203087816)"
"MI1877","CAIROLI SRL","09145070968","VIA SAN GIOVANNI SUL MURO, 9","MILANO",,"20121","MI","15.146","45,46673821074","9,18148552495","POINT (9.181485524951 45.466738210743)"
"MI0056","COOP.FARM.COLOMBO","00774640155","CORSO CRISTOFORO COLOMBO, 1","MILANO",,"20144","MI","15.146","45,45524251436","9,17285702618","POINT (9.172857026184 45.455242514357)"
"MI0959","A.F.M. N. 76","13195220150","VIA FEDERICO CHOPIN, 111","MILANO",,"20141","MI","15.146","45,42538638479","9,20385112483","POINT (9.203851124832 45.425386384793)"
"MI1659","NUOVA INGANNI SNC","03926990965","VIA ANGELO INGANNI, 70","MILANO",,"20147","MI","15.146","45,45488511001","9,12398172967","POINT (9.123981729673 45.454885110005)"
"MI1818","MEDA SNC","08119590969","VIA GIUSEPPE MEDA, 37","MILANO",,"20141","MI","15.146","45,44108099558","9,17889249939","POINT (9.178892499385 45.441080995575)"
"MI2044","SFORZA SAS DI GUARNIERI ANTONIO","13794150964","VIA LODOVICO IL MORO, 163","MILANO",,"20142","MI","15.146","45,44082379688","9,12921539002","POINT (9.129215390016 45.440823796876)"
"MI1927","PALMANOVA SAS DR.SSA BARBARA GALLO & C.","10863810965","PIAZZALE UDINE, 8","MILANO",,"20132","MI","15.146","45,49137899442","9,23741176223","POINT (9.237411762233 45.491378994422)"
"MI1707","FARINATTI SNC","05438820960","VIA PIERO DELLA FRANCESCA, 3","MILANO",,"20154","MI","15.146","45,48209280962","9,16730636226","POINT (9.167306362264 45.482092809622)"
"MI1890","MILANO SIGRA SRL","10132730960","VIA VITRUVIO, 11","MILANO",,"20124","MI","15.146","45,48108379612","9,2088955218","POINT (9.208895521801 45.481083796118)"
"MI1900","FULVIO TESTI FARMA ACQUISITION SRL","02489000998","VIALE FULVIO TESTI, 90","MILANO",,"20126","MI","15.146","45,51204478625","9,20430181977","POINT (9.204301819766 45.512044786248)"
"MI0693","A.F.M. N. 33","13195220150","VIA LUIGI ANGELONI, 20","MILANO",,"20161","MI","15.146","45,52649879154","9,1757457653","POINT (9.175745765295 45.526498791541)"
"MI1742","BALDINI SNC & C.","06161300964","CORSO BUENOS AIRES, 39","MILANO",,"20124","MI","15.146","45,47997281676","9,21037123967","POINT (9.210371239674 45.479972816762)"
"MI2017","SANT'ELENA SRL","13073430962","VIA FRATELLI ZOIA, 84","MILANO",,"20153","MI","15.146","45,47131150284","9,10868458874","POINT (9.10868458874 45.471311502844)"
"MI0177","EREDI DR. BRUNI CLAUDIO","14235720969","VIA SAN MARCO, 18","MILANO",,"20121","MI","15.146","45,47514240978","9,18853646572","POINT (9.188536465721 45.475142409781)"
"MI1541","TURRO","11963650152","VIA PADOVA, 109","MILANO",,"20127","MI","15.146","45,49661110411","9,23039669601","POINT (9.230396696008 45.496611104112)"
"MI1930","SANTA CHIARA SNC DOTTORI COLOMBO LEONI ALFREDO ANDREA AMRIA E ANNA GIULIA MARIA","10921980966","VIA CRESCENZAGO, 36","MILANO",,"20134","MI","15.146","45,48930820333","9,24184687866","POINT (9.24184687866 45.489308203333)"
"MI1701","SARDEGNA SAS DEL DOTT. MAZZOLI DAVIDE","05345570963","VIA SARDEGNA, 31","MILANO",,"20146","MI","15.146","45,4633292069","9,15251993069","POINT (9.152519930691 45.463329206902)"
"MI1621","SCIENTIFICA","13282140154","VIA CIRO MENOTTI, 18","MILANO",,"20129","MI","15.146","45,47102748206","9,21338176784","POINT (9.213381767838 45.471027482055)"
"MI0703","A.F.M. N. 34","13195220150","VIA CARLO MAROCHETTI,9","MILANO",,"20139","MI","15.146","45,4392657","9,2261121","POINT (9.2261121 45.4392657)"
"MI2036","SAN MATTEO SAS DELLA DR.SSA CASTAGNOLA LAURA ENRICA","13781710960","VIA MATTEO CIVITALI, 41","MILANO",,"20148","MI","15.146","45,47233191574","9,13206506946","POINT (9.132065069458 45.472331915736)"
"MI1908","CONI ZUGNA FARMA SRL","10376470968","VIALE CONI ZUGNA, 56","MILANO",,"20144","MI","15.146","45,45616159004","9,17063590566","POINT (9.170635905662 45.45616159004)"
"MI1461","ARCHINTO","11174900156","PIAZZALE CARLO ARCHINTO, 1","MILANO",,"20159","MI","15.146","45,4874856004","9,18692755941","POINT (9.186927559407 45.487485600397)"
"MI0926","A.F.M. N. 69","13195220150","VIA RONCHI, 31","MILANO",,"20134","MI","15.146","45,4888029003","9,23693902289","POINT (9.236939022894 45.4888029003)"
"MI2054","MILANO BAIRES","12283700966","CORSO BUENOS AIRES, 55","MILANO",,"20124","MI","15.146","45,48217247961","9,21256101188","POINT (9.212561011879 45.482172479612)"
"MI0701","A.F.M. N. 38","13195220150","VIA MICHELE SAPONARO 2C","MILANO",,"20142","MI","15.146","45,41126241694","9,17273121382","POINT (9.172731213818 45.411262416938)"
"MI1938","SANTA TERESA SRL","11050820965","CORSO MAGENTA, 96","MILANO",,"20123","MI","15.146","45,46605340925","9,16641922163","POINT (9.166419221631 45.466053409253)"
"MI1688","MELCHIORRE GIOIA","05248820960","VIA MELCHIORRE GIOIA, 135","MILANO",,"20125","MI","15.146","45,4944745989","9,20645588506","POINT (9.206455885063 45.494474598902)"
"MI1970","DELLA TORRETTA MILANO SAS DI DR.SSA MONICA ROCCHI E C.","11510970962","LARGO PROMESSI SPOSI, 4","MILANO",,"20142","MI","15.146","45,43578740463","9,17318241167","POINT (9.173182411666 45.435787404625)"
"MI1957","BELTRADE SRL","10564470960","PIAZZA SANTA MARIA BELTRADE, 1","MILANO",,"20123","MI","15.146","45,46267160469","9,18657090943","POINT (9.186570909427 45.462671604689)"
"MI1369","LORETO SNC","10703870153","PIAZZALE LORETO, 7","MILANO",,"20131","MI","15.146","45,48651430546","9,21620537956","POINT (9.216205379561 45.486514305457)"
"MI0050","COOP.FARM.SEMPIONE","00774640155","PIAZZA SEMPIONE, 8","MILANO",,"20154","MI","15.146","45,47645271079","9,17202176953","POINT (9.172021769533 45.476452710794)"
"MI2000","NOSTRA SIGNORA DI MONTALLEGRO SRL","12454910964","VIA BARI 11A","MILANO",,"20143","MI","15.146","45,43865041129","9,14873407648","POINT (9.148734076484 45.438650411292)"
"MI1733","FOGLIA FASOLIS SRL","04582870962","VIA BERNARDO CELENTANO, 1","MILANO",,"20132","MI","15.146","45,50247131172","9,23900952062","POINT (9.239009520616 45.502471311717)"
"MI1440","MONFORTE SNC","11016490150","CORSO MONFORTE, 19","MILANO",,"20122","MI","15.146","45,46696209138","9,19993409384","POINT (9.19993409384 45.466962091377)"
"MI1834","SEGRE","08834370960","VIA FRANCESCO PRIMATICCIO, 217","MILANO",,"20147","MI","15.146","45,46278258109","9,12783740513","POINT (9.127837405134 45.462782581087)"
"MI1838","SENATO SRL","08801680961","VIA SENATO, 2","MILANO",,"20121","MI","15.146","45,46909331599","9,19908291157","POINT (9.199082911573 45.469093315987)"
"MI0025","FARMACEUTICA BRAMANTE","01032620153","VIA GIOVANNI PACINI, 30","MILANO",,"20131","MI","15.146","45,4821645168","9,22950167639","POINT (9.229501676387 45.482164516804)"
"MI1656","FARAM SNC DI ALBERO DUE SRL (EX SUZZANI)","03860200967","VIALE GIOVANNI SUZZANI, 18","MILANO",,"20162","MI","15.146","45,50627208571","9,19791648593","POINT (9.197916485927 45.506272085712)"
"MI1920","FIRENZE SRL","10560170960","VIA RUGGERO DI LAURIA, 22","MILANO",,"20149","MI","15.146","45,4868033973","9,15652656423","POINT (9.156526564228 45.486803397297)"
"MI1363","ALZAIA PAVESE SNC","04130990965","VIA MARIO PICHI, 9","MILANO",,"20143","MI","15.146","45,44723301914","9,17525140065","POINT (9.175251400645 45.447233019139)"
"MI1963","HIPPO 80 FARMA SRL - EUSTACHI","11261800962","VIA ALESSANDRO STRADELLA, 1","MILANO",,"20129","MI","15.146","45,4783157145","9,21523777266","POINT (9.215237772658 45.478315714504)"
"MI1984","OLMETTO SAS DR. MARCO SELLE & C.","12089440965","VIA FERNANDA WITTGENS, 3","MILANO",,"20123","MI","15.146","45,4576694106","9,18410688135","POINT (9.18410688135 45.457669410602)"
"MI1786","LA SAPIENZA","02942570124","VIA GIACOMO ANTONINI, 56","MILANO",,"20141","MI","15.146","45,43707750525","9,19586040508","POINT (9.195860405078 45.437077505252)"
"MI1880","SANTA GIULIA SAS","10092130961","VIA ROMUALDO BONFADINI, 87","MILANO",,"20138","MI","15.146","45,44469011735","9,2442037022","POINT (9.244203702195 45.444690117354)"
"MI0662","A.F.M. N. 13","13195220150","PIAZZA GEREMIA BONOMELLI, 4","MILANO",,"20139","MI","15.146","45,44131061781","9,21389189047","POINT (9.213891890465 45.441310617813)"
"MI2067","INTERNAZIONALE SAS DELLA DOTT.SSA C. COLIOLO","14457220961","VIA CARLO MATTEUCCI, 4","MILANO",,"20129","MI","15.146","45,48104381444","9,21657829043","POINT (9.216578290433 45.48104381444)"
"MI1612","OVIDIO SNC","13118020158","VIA TOSCOLANO, 1","MILANO",,"20138","MI","15.146","45,45875260395","9,24181133939","POINT (9.24181133939 45.458752603949)"
"MI1630","SAN PAOLO SRL","13367530154","VIA PORDENONE, 1","MILANO",,"20132","MI","15.146","45,490144382","9,2341481844","POINT (9.2341481844 45.490144382)"
"MI1945","SAN MARTINO SRL","11141010964","VIALE DELLE RIMEMBRANZE DI LAMBRATE, 18","MILANO",,"20134","MI","15.146","45,4821777183","9,24039186409","POINT (9.240391864088 45.482177718301)"
"MI1722","MONCUCCO SAS","05653610963","VIA RIMINI, 29","MILANO",,"20142","MI","15.146","45,44053680051","9,16916999462","POINT (9.169169994616 45.440536800511)"
"MI1849","TIBALDI SNC","09089540968","VIALE TIBALDI, 15","MILANO",,"20136","MI","15.146","45,44371810995","9,17941418904","POINT (9.179414189039 45.443718109952)"
"MI1644","CADORNA SNC","03362610960","PIAZZALE LUIGI CADORNA, 11","MILANO",,"20123","MI","15.146","45,46774730807","9,17614692318","POINT (9.176146923181 45.467747308066)"
"MI0904","A.F.M. N. 58","13195220150","VIA PALMANOVA, 65","MILANO",,"20132","MI","15.146","45,49654530617","9,23604777513","POINT (9.236047775129 45.496545306172)"
"MI2004","DR.SSA DANIELA MATTALIA","12618270966","VIA GIORGIO WASHINGTON, 98","MILANO",,"20146","MI","15.146","45,45608401553","9,15437492968","POINT (9.154374929683 45.456084015526)"
"MI1988","MADIA SAS DEL DR. MADIA DARIO","12139450964","VIALE ZARA, 38","MILANO",,"20124","MI","15.146","45,49206790304","9,19299748223","POINT (9.192997482229 45.492067903044)"
"MI1381","GRILLI SAS DELLA DR.SSA LUISA GRILLI","10739420155","VIA CARLO DOLCI, 6","MILANO",,"20148","MI","15.146","45,47198331238","9,1434870051","POINT (9.143487005096 45.471983312383)"
"MI1206","GIAMBELLINO","09013310157","VIA GIAMBELLINO, 64","MILANO",,"20146","MI","15.146","45,44944190208","9,14437456482","POINT (9.144374564823 45.449441902083)"
"MI0972","A.F.M. N. 78","13195220150","VIA NEGROLI, 55","MILANO",,"20133","MI","15.146","45,46768398279","9,23229201195","POINT (9.232292011954 45.467683982788)"
"MI1874","XXII MARZO SAS DI VINCENZO BUCCARELLI E C","09711000969","CORSO XXII MARZO, 23","MILANO",,"20129","MI","15.146","45,46238339295","9,21088655908","POINT (9.210886559082 45.462383392948)"
"MI1609","PESENTI SRL","13066510150","VIA IGNAZIO CIAIA, 3","MILANO",,"20158","MI","15.146","45,50215749326","9,17579773309","POINT (9.175797733094 45.502157493263)"
"MI0696","A.F.M. N. 35","13195220150","VIA POLICARPO PETROCCHI, 21","MILANO",,"20127","MI","15.146","45,50281899306","9,22503068541","POINT (9.225030685414 45.502818993061)"
"MI1978","CITTA' STUDI SRL","12084970966","LARGO ORESTE MURANI, 2","MILANO",,"20133","MI","15.146","45,47304441942","9,23518108634","POINT (9.235181086341 45.473044419416)"
"MI1802","OLONA SAS DI FEDELI EMILIA E C.","07639340962","VIALE CONI ZUGNA, 43","MILANO",,"20144","MI","15.146","45,4573316199","9,1692868383","POINT (9.1692868383 45.4573316199)"
"MI1741","FOGLIA FASOLIS SRL","04582870962","VIA SAN CALIMERO, 1","MILANO",,"20122","MI","15.146","45,45731548474","9,19335723351","POINT (9.193357233514 45.45731548474)"
"MI1164","SOCIALE","08397670152","VIALE MONZA,126","MILANO",,"20127","MI","15.146","45,5015426","9,2216385","POINT (9.2216385 45.5015426)"
"MI1899","DE POLI SAS DR.SSA DE POLI MARIACHIARA & C","10320280968","VIALE LOMBARDIA, 65","MILANO",,"20131","MI","15.146","45,48686559102","9,22333485876","POINT (9.223334858764 45.486865591019)"
"MI0658","A.F.M. N. 16","13195220150","VIALE GIOVANNI SUZZANI, 155","MILANO",,"20162","MI","15.146","45,51624449693","9,20307755899","POINT (9.203077558988 45.516244496925)"
"MI2063","PICCHIOTTI SAS DI MAURIZIO STRAZIOTA","14418100963","VIALE AFFORI, 10","MILANO",,"20161","MI","15.146","45,5171432884","9,170632972","POINT (9.170632971996 45.517143288402)"
"MI1967","FARAM SNC DI ALBERO DUE SRL (EX MONZA)","03860200967","PIAZZALE MARTESANA, 4","MILANO",,"20128","MI","15.146","45,50841760147","9,22416810376","POINT (9.224168103758 45.508417601468)"
"MI1675","TARANTINO","02061270167","RIPA DI PORTA TICINESE, 33","MILANO",,"20143","MI","15.146","45,45155020219","9,17457959111","POINT (9.174579591106 45.451550202189)"
"MI1595","LEGA LOMBARDA SRL","12514310155","VIALE ELVEZIA, 6","MILANO",,"20154","MI","15.146","45,47743930271","9,17903993706","POINT (9.179039937062 45.477439302708)"
"MI1784","ARGONNE SAS DEL DR. MAZZANTINI MASSIMO & C.","07117510961","VIA UMBERTO MASOTTO, 1","MILANO",,"20133","MI","15.146","45,46698518352","9,23043927608","POINT (9.230439276076 45.46698518352)"
"MI1814","BROLETTO","08043670960","VIA BROLETTO, 30","MILANO",,"20121","MI","15.146","45,46775372022","9,18573942463","POINT (9.185739424632 45.467753720222)"
"MI1639","LESSONA","03318210964","VIA PRIVATA ANTONIO GAZZOLETTI, 3","MILANO",,"20157","MI","15.146","45,51752671856","9,136054101","POINT (9.136054100998 45.517526718563)"
"MI1833","SEMPIONE DI GHEZA & C. SNC","08435470961","CORSO SEMPIONE, 5","MILANO",,"20145","MI","15.146","45,47674159309","9,17061034086","POINT (9.170610340857 45.476741593087)"
"MI1888","RANZONI FARMA ACQUISITION SRL","02489000998","VIALE DANIELE RANZONI, 2","MILANO",,"20149","MI","15.146","45,46736500946","9,14619268344","POINT (9.146192683441 45.467365009462)"
"MI1789","GENOVA SRL","07210180969","CORSO GENOVA, 27","MILANO",,"20123","MI","15.146","45,45625010294","9,17436090725","POINT (9.174360907252 45.456250102937)"
"MI1854","TOLSTOJ","09287610969","VIA LEONE TOLSTOI, 17","MILANO",,"20146","MI","15.146","45,45108630576","9,15081429721","POINT (9.150814297214 45.451086305758)"
"MI1824","FRATELLI RAGNI SRL","08441520965","VIA ALESSANDRO LITTA MODIGNANI, 5","MILANO",,"20161","MI","15.146","45,5237230824","9,1654642714","POINT (9.165464271403 45.523723082395)"
"MI0911","A.F.M. N. 61","13195220150","VIA VINCENZO MAGLIOCCO, 3","MILANO",,"20141","MI","15.146","45,44020479333","9,18370019141","POINT (9.183700191408 45.440204793327)"
"MI2009","FUSCO SAS DELLA DOTT.SSA MONTAGNANI MARELLI ROSSELLA E C.","12657150962","VIA GIANBATTISTA BODONI, 19","MILANO",,"20155","MI","15.146","45,49334911885","9,14948735812","POINT (9.149487358122 45.493349118854)"
"MI1695","DEL CARMINE","04394790879","VIA MERCATO, 1","MILANO",,"20121","MI","15.146","45,47078138938","9,18424191381","POINT (9.18424191381 45.470781389377)"
"MI0732","A.F.M. N. 41","13195220150","VIALE GIOVANNI SUZZANI, 239","MILANO",,"20162","MI","15.146","45,52235699982","9,20656686146","POINT (9.206566861461 45.522356999816)"
"MI1867","PORPORA SRL","09151920965","VIA NICOLA ANTONIO PORPORA, 148","MILANO",,"20131","MI","15.146","45,48597958194","9,23062518669","POINT (9.230625186689 45.485979581944)"
"MI2021","GENOVA SRL (EX MONTAGNA SNC)","07210180969","VIALE TIBALDI, 50","MILANO",,"20136","MI","15.146","45,44410669498","9,18300918731","POINT (9.18300918731 45.444106694983)"
"MI0692","A.F.M. N. 24","13195220150","VIA MARIO MORGANTINI, 25","MILANO",,"20148","MI","15.146","45,46909888995","9,13313837216","POINT (9.133138372159 45.469098889953)"
"MI1950","SANTA CATERINA SRL","11320830968","VIALE CATERINA DA FORLI', 7","MILANO",,"20146","MI","15.146","45,45929298525","9,1466496648","POINT (9.146649664802 45.459292985247)"
"MI0712","A.F.M. N. 40","13195220150","VIA DELLA CHIESA ROSSA, 95","MILANO",,"20142","MI","15.146","45,42717390946","9,17041931728","POINT (9.170419317284 45.427173909464)"
"MI1857","BARONA SAS","09270110969","PIAZZA GUGLIELMO MIANI, 3","MILANO",,"20143","MI","15.146","45,43771008749","9,15522996763","POINT (9.155229967625 45.437710087485)"
"MI0887","A.F.M. N. 47","13195220150","VIA VINCENZO FOPPA, 5","MILANO",,"20144","MI","15.146","45,45868119013","9,16402132677","POINT (9.164021326771 45.458681190134)"
"MI1730","PLEBISCITI SAS DEL DOTTOR DANESI PIETRO & C.","05752130962","CORSO PLEBISCITI, 7","MILANO",,"20129","MI","15.146","45,4681741984","9,21870972459","POINT (9.218709724591 45.468174198395)"
"MI2012","CASSIODORO SRL","02330410982","VIALE CASSIODORO, 12","MILANO",,"20145","MI","15.146","45,47439419919","9,16012483144","POINT (9.160124831442 45.474394199194)"
"MI1687","SAN GIOVANNI SAS DR.SSA COSTA ANTONELLA","05273210962","VIA POLA, 13","MILANO",,"20124","MI","15.146","45,48868077466","9,19407385247","POINT (9.194073852466 45.488680774664)"
"MI2058","MILANO SOLFERINO","12283700966","VIA SOLFERINO, 25","MILANO",,"20121","MI","15.146","45,4780171092","9,18803581465","POINT (9.188035814645 45.478017109203)"
"MI1710","AFFORI DEL DR. LUIGI WAIFER SPAGGIARI & C. SAS","05513770965","VIA ALESSANDRO ZANOLI, 3","MILANO",,"20161","MI","15.146","45,51574158273","9,17175497356","POINT (9.171754973555 45.515741582734)"
"MI1976","MONTI SRL","12062180968","VIA LUIGI VARANINI, 19","MILANO",,"20127","MI","15.146","45,49303810834","9,21575108041","POINT (9.215751080409 45.493038108336)"
"MI0683","A.F.M. N. 20","13195220150","PIAZZA AXUM, 5","MILANO",,"20151","MI","15.146","45,47533850441","9,12311613053","POINT (9.123116130532 45.475338504405)"
"MI1751","NIZZA DI CLUB SALUTE SRL","06414420965","VIA GIOACCHINO MURAT, 85","MILANO",,"20159","MI","15.146","45,50266749016","9,18932972904","POINT (9.189329729038 45.502667490161)"
"MI1774","BERTA SRL","07087680968","VIALE MONZA, 43","MILANO",,"20127","MI","15.146","45,49045769753","9,21779961755","POINT (9.217799617545 45.490457697534)"
"MI1450","METALLA SRL","11017670156","VIALE UMBRIA, 19","MILANO",,"20135","MI","15.146","45,44968548019","9,21169558038","POINT (9.211695580376 45.449685480189)"
"MI2016","TRIPHARMA SAS DI MANELLI MARIA LUISA & C.","12968820964","VIA GUGLIELMO SILVA, 39","MILANO",,"20149","MI","15.146","45,47825481998","9,14719189012","POINT (9.147191890118 45.478254819977)"
"MI1902","BENU RETAIL SRL - LARGO AUGUSTO","03653681209","LARGO AUGUSTO, 8","MILANO",,"20122","MI","15.146","45,46279490248","9,19705541301","POINT (9.197055413014 45.462794902484)"
"MI0054","COOP.FARM.PLINIO","00774640155","VIA PLINIO, 1","MILANO",,"20129","MI","15.146","45,47997981565","9,21137438585","POINT (9.211374385846 45.479979815651)"
"MI1620","CADORE","12349690151","VIA CADORE, 29","MILANO",,"20135","MI","15.146","45,45744238676","9,21294062827","POINT (9.212940628274 45.457442386755)"
"MI0958","A.F.M. N. 75","13195220150","VIA GIORGIO WASHINGTON, 74","MILANO",,"20146","MI","15.146","45,45956258916","9,15456167849","POINT (9.154561678485 45.459562589163)"
"MI1844","NUOVA FARMACIA FATEBENEFRATELLI SRL","08965060968","PIAZZALE PRINCIPESSA CLOTILDE","MILANO",,"20121","MI","15.146","45,4794154202","9,19439382348","POINT (9.194393823479 45.4794154202)"
"MI2026","HIPPO 80 FARMA SRL -FARMACIA ABRUZZI","11261800962","VIA PLINIO, 46","MILANO",,"20129","MI","15.146","45,47650438523","9,21758369972","POINT (9.217583699719 45.476504385228)"
"MI1279","FORLANINI","09833270151","VIALE ENRICO FORLANINI,50","MILANO",,"20138","MI","15.146","45,46187","9,2439","POINT (9.2439 45.46187)"
"MI0653","A.F.M. N. 04","13195220150","VIA VOLVINIO, 25","MILANO",,"20141","MI","15.146","45,43560970828","9,18373790997","POINT (9.183737909973 45.435609708277)"
"MI1827","TADDEI SNC","08615080960","VIA AIROLO, 36","MILANO",,"20159","MI","15.146","45,50210539973","9,19288348835","POINT (9.192883488346 45.502105399734)"
"MI1402","ARIBERTO SAS","10811240158","VIA EDMONDO DE AMICIS, 51","MILANO",,"20123","MI","15.146","45,46061661349","9,17458076457","POINT (9.174580764572 45.460616613487)"
"MI0878","A.F.M. N. 53","13195220150","VIA ETTORE PONTI, 31","MILANO",,"20143","MI","15.146","45,44214491055","9,15535150522","POINT (9.155351505221 45.442144910545)"
"MI1951","COMOTTI DR.SSA CATERINA GRAFFI SRL","10358380961","PIAZZA CAVOUR, 5","MILANO",,"20121","MI","15.146","45,47297158068","9,19528456833","POINT (9.19528456833 45.472971580677)"
"MI1662","MAZZOLENI SRL","04047520962","VIA NICOLA PICCINNI, 3","MILANO",,"20131","MI","15.146","45,48318371432","9,21441676524","POINT (9.214416765242 45.48318371432)"
